OBJECT_NAME,OBJECT_ID,EPOCH,MEAN_MOTION,ECCENTRICITY,INCLINATION,RA_OF_ASC_NODE,ARG_OF_PERICENTER,MEAN_ANOMALY,EPHEMERIS_TYPE,CLASSIFICATION_TYPE,NORAD_CAT_ID,ELEMENT_SET_NO,REV_AT_EPOCH,BSTAR,MEAN_MOTION_DOT,MEAN_MOTION_DDOT
PROX-1,2019-036A,2026-07-04T14:14:49.571520,14.91071311,.00052887,23.9962,357.9415,240.4887,119.5085,0,U,44339,999,37607,.26468083E-2,.27221E-3,0
NPSAT1,2019-036B,2026-07-04T10:34:25.761216,14.74744109,.00074553,23.9986,105.3730,48.3989,311.7145,0,U,44340,999,37504,.11197701E-2,.7905E-4,0
FORMOSAT 7-3,2019-036E,2026-07-03T23:16:24.137184,15.09923503,.00009998,23.9995,63.0224,106.4708,253.5906,0,U,44343,999,38578,.31768152E-3,.5636E-4,0
FORMOSAT 7-1,2019-036L,2026-07-04T13:59:04.572384,14.96586190,.00010063,23.9982,275.1159,45.7585,314.2999,0,U,44349,999,38726,.30256633E-3,.3833E-4,0
FORMOSAT 7-4,2019-036M,2026-07-04T14:31:34.440672,14.96580844,.00014014,23.9997,337.0692,45.5759,314.4856,0,U,44350,999,38668,.33766668E-3,.4242E-4,0
FORMOSAT 7-2,2019-036N,2026-07-04T15:03:45.726912,14.96578585,.00008522,23.9996,31.2317,47.5004,312.5569,0,U,44351,999,38620,.34121786E-3,.4283E-4,0
FORMOSAT 7-6,2019-036Q,2026-07-04T10:15:10.335744,14.96581453,.00007038,23.9965,213.3979,317.0435,43.0010,0,U,44353,999,38440,.22208098E-3,.2893E-4,0
FORMOSAT 7-5,2019-036V,2026-07-04T06:30:26.888256,14.96559343,.00005653,23.9964,153.1956,84.6345,275.4221,0,U,44358,999,38491,.19208972E-3,.2542E-4,0
METEOR-M2 2,2019-038A,2026-07-04T14:17:26.556864,14.24370321,.00013135,98.9153,173.1384,22.1302,337.9932,0,U,44387,999,36377,.60392957E-4,.94E-6,0
GLOBAL-4,2019-054E,2026-07-04T13:33:30.699360,15.66079115,.00039348,45.0044,136.0113,113.4500,246.6811,0,U,44499,999,38308,.10028234E-2,.106521E-2,0
ZY-1 02D,2019-059A,2026-07-04T15:15:12.172320,14.35267002,.00036628,98.6714,247.1403,338.4454,21.6576,0,U,44528,999,35684,.14818628E-3,.379E-5,0
TAURUS-1 (JINNIUZUO 1),2019-059C,2026-07-04T13:46:57.608832,14.72281845,.0007373,98.6434,351.4838,252.7127,107.3272,0,U,44530,999,36120,.10808504E-2,.678E-4,0
ZHUHAI-1 03B,2019-060C,2026-07-04T15:03:22.714272,15.55120683,.00077565,97.5550,344.3477,246.0759,113.9682,0,U,44536,999,37903,.81005979E-3,.54801E-3,0
ZHUHAI-1 03D,2019-060E,2026-07-04T14:05:41.722080,15.50811022,.00069094,97.5402,336.2750,231.2366,128.8268,0,U,44538,999,37877,.98614543E-3,.5715E-3,0
ZHUHAI-1 03E,2019-060F,2026-07-04T13:51:29.695392,15.41647785,.0004665,97.5637,336.1359,325.2446,34.8495,0,U,44539,999,37844,.77822628E-3,.32805E-3,0
GAOFEN-7,2019-072A,2026-07-04T15:05:59.521632,15.21398604,.0016916,97.2413,246.4375,340.6549,19.4043,0,U,44703,999,37029,.2939897E-3,.6554E-4,0
JILIN-1 GAOFEN 2A,2019-075A,2026-07-04T11:44:34.047744,15.39786584,.00062411,97.4961,269.6886,33.6096,326.5544,0,U,44777,999,36754,.50841853E-3,.20098E-3,0
NINGXIA-1 1,2019-076A,2026-07-04T15:21:11.316384,14.02041064,.00115852,45.0055,101.8588,243.5295,116.4351,0,U,44779,999,34030,.96193026E-4,.18E-6,0
NINGXIA-1 5,2019-076E,2026-07-04T15:39:28.013184,14.02088142,.00112053,45.0054,101.1370,234.7270,125.2517,0,U,44783,999,34022,.750888E-6,-.129E-5,0
KL-ALPHA A,2019-077A,2026-07-04T14:35:29.059008,13.56045125,.00131486,88.9233,220.6599,63.3627,296.8872,0,U,44785,999,32809,.192024E-3,.147E-5,0
CARTOSAT-3,2019-081A,2026-07-04T14:40:07.887360,15.19267301,.00135575,97.4291,247.1978,93.6224,266.6561,0,U,44804,999,36611,.29941065E-3,.6261E-4,0
JILIN-1 GAOFEN 2B,2019-086A,2026-07-04T10:50:33.668448,15.20905582,.00125226,97.4872,257.3360,256.7697,103.2142,0,U,44836,999,36311,.36477036E-3,.8015E-4,0
TIANQIN 1 (CAS-6),2019-093A,2026-07-04T14:52:13.418400,14.95521462,.00110061,97.7801,269.3351,2.1663,357.9603,0,U,44879,999,35465,.46685788E-3,.5122E-4,0
ETRSS-1,2019-093B,2026-07-04T14:54:42.239808,14.95964135,.00112125,97.7817,269.8112,2.1086,358.0180,0,U,44880,999,35466,.44089575E-3,.4889E-4,0
TIANYAN 01,2019-093C,2026-07-04T14:42:58.655232,14.86547292,.00144497,97.7524,257.4200,34.7843,325.4315,0,U,44881,999,35400,.12782031E-3,.108E-4,0
TIANYAN 02,2019-093D,2026-07-04T14:26:31.682976,15.05444246,.00126323,97.7944,280.5611,328.3768,31.6697,0,U,44882,999,35523,.76965908E-3,.11017E-3,0
CBERS 4A,2019-093E,2026-07-04T15:37:40.731168,14.81429177,.00007754,98.0183,253.1063,130.9441,229.1839,0,U,44883,999,35366,.94867077E-4,.689E-5,0
WEILAI 1R,2019-093F,2026-07-04T14:10:15.667968,15.00796953,.00167698,97.7875,275.5058,343.3393,16.7278,0,U,44884,999,35503,.45859246E-3,.5779E-4,0
