PROX-1                  
1 44339U 19036A   26185.59362930  .00027221  00000+0  26468-2 0  9992
2 44339  23.9962 357.9415 0005288 240.4887 119.5085 14.91071311376076
NPSAT1                  
1 44340U 19036B   26185.44057594  .00007905  00000+0  11198-2 0  9996
2 44340  23.9986 105.3730 0007455  48.3989 311.7145 14.74744109375047
FORMOSAT 7-3            
1 44343U 19036E   26184.96972381  .00005636  00000+0  31768-3 0  9990
2 44343  23.9995  63.0224 0000999 106.4708 253.5906 15.09923503385785
FORMOSAT 7-1            
1 44349U 19036L   26185.58269181  .00003833  00000+0  30257-3 0  9991
2 44349  23.9982 275.1159 0001006  45.7585 314.2999 14.96586190387262
FORMOSAT 7-4            
1 44350U 19036M   26185.60525973  .00004242  00000+0  33767-3 0  9994
2 44350  23.9997 337.0692 0001401  45.5759 314.4856 14.96580844386689
FORMOSAT 7-2            
1 44351U 19036N   26185.62761258  .00004283  00000+0  34122-3 0  9996
2 44351  23.9996  31.2317 0000852  47.5004 312.5569 14.96578585386207
FORMOSAT 7-6            
1 44353U 19036Q   26185.42720296  .00002893  00000+0  22208-3 0  9990
2 44353  23.9965 213.3979 0000703 317.0435  43.0010 14.96581453384405
FORMOSAT 7-5            
1 44358U 19036V   26185.27114454  .00002542  00000+0  19209-3 0  9999
2 44358  23.9964 153.1956 0000565  84.6345 275.4221 14.96559343384912
METEOR-M2 2             
1 44387U 19038A   26185.59544626  .00000094  00000+0  60393-4 0  9997
2 44387  98.9153 173.1384 0001313  22.1302 337.9932 14.24370321363777
GLOBAL-4                
1 44499U 19054E   26185.56493865  .00106521  00000+0  10028-2 0  9994
2 44499  45.0044 136.0113 0003934 113.4500 246.6811 15.66079115383088
ZY-1 02D                
1 44528U 19059A   26185.63555755  .00000379  00000+0  14819-3 0  9994
2 44528  98.6714 247.1403 0003662 338.4454  21.6576 14.35267002356842
TAURUS-1 (JINNIUZUO 1)  
1 44530U 19059C   26185.57427788  .00006780  00000+0  10809-2 0  9990
2 44530  98.6434 351.4838 0007373 252.7127 107.3272 14.72281845361206
ZHUHAI-1 03B            
1 44536U 19060C   26185.62734623  .00054801  00000+0  81006-3 0  9998
2 44536  97.5550 344.3477 0007756 246.0759 113.9682 15.55120683379033
ZHUHAI-1 03D            
1 44538U 19060E   26185.58728845  .00057150  00000+0  98615-3 0  9998
2 44538  97.5402 336.2750 0006909 231.2366 128.8268 15.50811022378778
ZHUHAI-1 03E            
1 44539U 19060F   26185.57742703  .00032805  00000+0  77823-3 0  9995
2 44539  97.5637 336.1359 0004665 325.2446  34.8495 15.41647785378448
GAOFEN-7                
1 44703U 19072A   26185.62916113  .00006554  00000+0  29399-3 0  9992
2 44703  97.2413 246.4375 0016916 340.6549  19.4043 15.21398604370292
JILIN-1 GAOFEN 2A       
1 44777U 19075A   26185.48928296  .00020098  00000+0  50842-3 0  9991
2 44777  97.4961 269.6886 0006241  33.6096 326.5544 15.39786584367542
NINGXIA-1 1             
1 44779U 19076A   26185.63971431  .00000018  00000+0  96193-4 0  9990
2 44779  45.0055 101.8588 0011585 243.5295 116.4351 14.02041064340306
NINGXIA-1 5             
1 44783U 19076E   26185.65240756 -.00000129  00000+0  75089-6 0  9993
2 44783  45.0054 101.1370 0011205 234.7270 125.2517 14.02088142340227
KL-ALPHA A              
1 44785U 19077A   26185.60797522  .00000147  00000+0  19202-3 0  9990
2 44785  88.9233 220.6599 0013148  63.3627 296.8872 13.56045125328096
CARTOSAT-3              
1 44804U 19081A   26185.61120240  .00006261  00000+0  29941-3 0  9999
2 44804  97.4291 247.1978 0013557  93.6224 266.6561 15.19267301366113
JILIN-1 GAOFEN 2B       
1 44836U 19086A   26185.45177857  .00008015  00000+0  36477-3 0  9998
2 44836  97.4872 257.3360 0012522 256.7697 103.2142 15.20905582363118
TIANQIN 1 (CAS-6)       
1 44879U 19093A   26185.61959975  .00005122  00000+0  46686-3 0  9999
2 44879  97.7801 269.3351 0011006   2.1663 357.9603 14.95521462354656
ETRSS-1                 
1 44880U 19093B   26185.62132222  .00004889  00000+0  44090-3 0  9996
2 44880  97.7817 269.8112 0011212   2.1086 358.0180 14.95964135354664
TIANYAN 01              
1 44881U 19093C   26185.61317888  .00001080  00000+0  12782-3 0  9992
2 44881  97.7524 257.4200 0014449  34.7843 325.4315 14.86547292354005
TIANYAN 02              
1 44882U 19093D   26185.60175559  .00011017  00000+0  76966-3 0  9994
2 44882  97.7944 280.5611 0012632 328.3768  31.6697 15.05444246355237
CBERS 4A                
1 44883U 19093E   26185.65116587  .00000689  00000+0  94867-4 0  9990
2 44883  98.0183 253.1063 0000775 130.9441 229.1839 14.81429177353660
WEILAI 1R               
1 44884U 19093F   26185.59045912  .00005779  00000+0  45859-3 0  9998
2 44884  97.7875 275.5058 0016769 343.3393  16.7278 15.00796953355034
